{
  "type": "FeatureCollection",
  "features": [
    {
      "type": "Feature",
      "properties": {
        "norad_id": 37238,
        "name": "INTELSAT 17 (IS-17)",
        "group": "intelsat",
        "lat": -0.00873592348353585,
        "lon": -54.383033546822816,
        "alt_km": 35776.20885111313,
        "timestamp": "2025-12-22T09:53:37.074061+00:00",
        "meta_object_name": "INTELSAT 17 (IS-17)",
        "meta_object_id": "2010-065B",
        "meta_epoch": "2025-12-21T22:04:13.136736",
        "meta_mean_motion": 1.00271741,
        "meta_eccentricity": 0.0002624,
        "meta_inclination": 0.011,
        "meta_ra_of_asc_node": 290.5005,
        "meta_arg_of_pericenter": 347.6878,
        "meta_mean_anomaly": 209.5868,
        "meta_ephemeris_type": 0,
        "meta_classification_type": "U",
        "meta_norad_cat_id": 37238,
        "meta_element_set_no": 999,
        "meta_rev_at_epoch": 5147,
        "meta_bstar": 0,
        "meta_mean_motion_dot": 2.1e-07,
        "meta_mean_motion_ddot": 0,
        "tle_line1": "1 37238U 10065B   25355.91959649  .00000021  00000+0  00000+0 0  9998",
        "tle_line2": "2 37238   0.0110 290.5005 0002624 347.6878 209.5868  1.00271741 51473"
      },
      "geometry": {
        "type": "Point",
        "coordinates": [
          -54.383033546822816,
          -0.00873592348353585
        ]
      }
    },
    {
      "type": "Feature",
      "properties": {
        "norad_id": 37392,
        "name": "INTELSAT 28 (IS-28)",
        "group": "intelsat",
        "lat": 1.122659167151217,
        "lon": -152.12523151056493,
        "alt_km": 35780.392014512014,
        "timestamp": "2025-12-22T09:53:37.074080+00:00",
        "meta_object_name": "INTELSAT 28 (IS-28)",
        "meta_object_id": "2011-016A",
        "meta_epoch": "2025-12-22T02:44:30.513120",
        "meta_mean_motion": 1.00269329,
        "meta_eccentricity": 0.0003722,
        "meta_inclination": 1.3473,
        "meta_ra_of_asc_node": 84.9549,
        "meta_arg_of_pericenter": 189.5733,
        "meta_mean_anomaly": 185.8154,
        "meta_ephemeris_type": 0,
        "meta_classification_type": "U",
        "meta_norad_cat_id": 37392,
        "meta_element_set_no": 999,
        "meta_rev_at_epoch": 5151,
        "meta_bstar": 0,
        "meta_mean_motion_dot": -2.04e-06,
        "meta_mean_motion_ddot": 0,
        "tle_line1": "1 37392U 11016A   25356.11424205 -.00000204  00000+0  00000+0 0  9998",
        "tle_line2": "2 37392   1.3473  84.9549 0003722 189.5733 185.8154  1.00269329 51519"
      },
      "geometry": {
        "type": "Point",
        "coordinates": [
          -152.12523151056493,
          1.122659167151217
        ]
      }
    },
    {
      "type": "Feature",
      "properties": {
        "norad_id": 37834,
        "name": "INTELSAT 18 (IS-18)",
        "group": "intelsat",
        "lat": 0.03167328387950355,
        "lon": 59.626025582904546,
        "alt_km": 35791.12238286237,
        "timestamp": "2025-12-22T09:53:37.074093+00:00",
        "meta_object_name": "INTELSAT 18 (IS-18)",
        "meta_object_id": "2011-056A",
        "meta_epoch": "2025-12-22T03:26:38.920128",
        "meta_mean_motion": 1.00271316,
        "meta_eccentricity": 0.0001699,
        "meta_inclination": 0.0294,
        "meta_ra_of_asc_node": 282.6793,
        "meta_arg_of_pericenter": 3.8168,
        "meta_mean_anomaly": 36.1164,
        "meta_ephemeris_type": 0,
        "meta_classification_type": "U",
        "meta_norad_cat_id": 37834,
        "meta_element_set_no": 999,
        "meta_rev_at_epoch": 5203,
        "meta_bstar": 0,
        "meta_mean_motion_dot": 7.5e-07,
        "meta_mean_motion_ddot": 0,
        "tle_line1": "1 37834U 11056A   25356.14350602  .00000075  00000+0  00000+0 0  9990",
        "tle_line2": "2 37834   0.0294 282.6793 0001699   3.8168  36.1164  1.00271316 52032"
      },
      "geometry": {
        "type": "Point",
        "coordinates": [
          59.626025582904546,
          0.03167328387950355
        ]
      }
    },
    {
      "type": "Feature",
      "properties": {
        "norad_id": 38098,
        "name": "INTELSAT 22 (IS-22)",
        "group": "intelsat",
        "lat": -0.02237337562154234,
        "lon": -48.2835604348561,
        "alt_km": 35779.55444319142,
        "timestamp": "2025-12-22T09:53:37.074105+00:00",
        "meta_object_name": "INTELSAT 22 (IS-22)",
        "meta_object_id": "2012-011A",
        "meta_epoch": "2025-12-22T03:14:12.667776",
        "meta_mean_motion": 1.00271239,
        "meta_eccentricity": 0.0001765,
        "meta_inclination": 0.0076,
        "meta_ra_of_asc_node": 348.0115,
        "meta_arg_of_pericenter": 297.1725,
        "meta_mean_anomaly": 286.4063,
        "meta_ephemeris_type": 0,
        "meta_classification_type": "U",
        "meta_norad_cat_id": 38098,
        "meta_element_set_no": 999,
        "meta_rev_at_epoch": 541,
        "meta_bstar": 0,
        "meta_mean_motion_dot": -3.6e-07,
        "meta_mean_motion_ddot": 0,
        "tle_line1": "1 38098U 12011A   25356.13486884 -.00000036  00000+0  00000+0 0  9994",
        "tle_line2": "2 38098   0.0076 348.0115 0001765 297.1725 286.4063  1.00271239  5411"
      },
      "geometry": {
        "type": "Point",
        "coordinates": [
          -48.2835604348561,
          -0.02237337562154234
        ]
      }
    },
    {
      "type": "Feature",
      "properties": {
        "norad_id": 38356,
        "name": "INTELSAT 19 (IS-19)",
        "group": "intelsat",
        "lat": 0.03275448439214227,
        "lon": 45.63656773061211,
        "alt_km": 35794.93027619421,
        "timestamp": "2025-12-22T09:53:37.074117+00:00",
        "meta_object_name": "INTELSAT 19 (IS-19)",
        "meta_object_id": "2012-030A",
        "meta_epoch": "2025-12-22T03:42:38.798208",
        "meta_mean_motion": 1.00272063,
        "meta_eccentricity": 0.000282,
        "meta_inclination": 0.0195,
        "meta_ra_of_asc_node": 311.5109,
        "meta_arg_of_pericenter": 315.6915,
        "meta_mean_anomaly": 45.4231,
        "meta_ephemeris_type": 0,
        "meta_classification_type": "U",
        "meta_norad_cat_id": 38356,
        "meta_element_set_no": 999,
        "meta_rev_at_epoch": 4867,
        "meta_bstar": 0,
        "meta_mean_motion_dot": -3.4e-07,
        "meta_mean_motion_ddot": 0,
        "tle_line1": "1 38356U 12030A   25356.15461572 -.00000034  00000+0  00000+0 0  9999",
        "tle_line2": "2 38356   0.0195 311.5109 0002820 315.6915  45.4231  1.00272063 48679"
      },
      "geometry": {
        "type": "Point",
        "coordinates": [
          45.63656773061211,
          0.03275448439214227
        ]
      }
    },
    {
      "type": "Feature",
      "properties": {
        "norad_id": 38740,
        "name": "INTELSAT 20 (IS-20)",
        "group": "intelsat",
        "lat": -0.027356211841231774,
        "lon": -51.86706210356002,
        "alt_km": 35794.64240072508,
        "timestamp": "2025-12-22T09:53:37.074129+00:00",
        "meta_object_name": "INTELSAT 20 (IS-20)",
        "meta_object_id": "2012-043A",
        "meta_epoch": "2025-12-22T03:13:12.764064",
        "meta_mean_motion": 1.00271396,
        "meta_eccentricity": 0.0003468,
        "meta_inclination": 0.0092,
        "meta_ra_of_asc_node": 51.1293,
        "meta_arg_of_pericenter": 131.436,
        "meta_mean_anomaly": 25.1679,
        "meta_ephemeris_type": 0,
        "meta_classification_type": "U",
        "meta_norad_cat_id": 38740,
        "meta_element_set_no": 999,
        "meta_rev_at_epoch": 4897,
        "meta_bstar": 0,
        "meta_mean_motion_dot": -2e-08,
        "meta_mean_motion_ddot": 0,
        "tle_line1": "1 38740U 12043A   25356.13417551 -.00000002  00000+0  00000+0 0  9991",
        "tle_line2": "2 38740   0.0092  51.1293 0003468 131.4360  25.1679  1.00271396 48972"
      },
      "geometry": {
        "type": "Point",
        "coordinates": [
          -51.86706210356002,
          -0.027356211841231774
        ]
      }
    },
    {
      "type": "Feature",
      "properties": {
        "norad_id": 38749,
        "name": "INTELSAT 21 (IS-21)",
        "group": "intelsat",
        "lat": -0.016473008522596817,
        "lon": -178.4009449540019,
        "alt_km": 35785.13211768779,
        "timestamp": "2025-12-22T09:53:37.074141+00:00",
        "meta_object_name": "INTELSAT 21 (IS-21)",
        "meta_object_id": "2012-045A",
        "meta_epoch": "2025-12-21T19:46:10.920000",
        "meta_mean_motion": 1.00271743,
        "meta_eccentricity": 0.0001511,
        "meta_inclination": 0.0219,
        "meta_ra_of_asc_node": 293.9251,
        "meta_arg_of_pericenter": 328.2978,
        "meta_mean_anomaly": 66.962,
        "meta_ephemeris_type": 0,
        "meta_classification_type": "U",
        "meta_norad_cat_id": 38749,
        "meta_element_set_no": 999,
        "meta_rev_at_epoch": 4874,
        "meta_bstar": 0,
        "meta_mean_motion_dot": -2.63e-06,
        "meta_mean_motion_ddot": 0,
        "tle_line1": "1 38749U 12045A   25355.82373750 -.00000263  00000+0  00000+0 0  9998",
        "tle_line2": "2 38749   0.0219 293.9251 0001511 328.2978  66.9620  1.00271743 48740"
      },
      "geometry": {
        "type": "Point",
        "coordinates": [
          -178.4009449540019,
          -0.016473008522596817
        ]
      }
    }
  ]
}